[{"OBJECT_NAME":"ONEWEB-0233","OBJECT_ID":"2021-045AE","EPOCH":"2026-05-24T19:42:42.836832","MEAN_MOTION":13.15546862,"ECCENTRICITY":0.0001603,"INCLINATION":87.8988,"RA_OF_ASC_NODE":263.891,"ARG_OF_PERICENTER":97.9087,"MEAN_ANOMALY":262.2226,"EPHEMERIS_TYPE":0,"CLASSIFICATION_TYPE":"U","NORAD_CAT_ID":48795,"ELEMENT_SET_NO":999,"REV_AT_EPOCH":24122,"BSTAR":-0.00045993,"MEAN_MOTION_DOT":-1.6e-06,"MEAN_MOTION_DDOT":0.0},{"OBJECT_NAME":"ONEWEB-0190","OBJECT_ID":"2021-045AF","EPOCH":"2026-05-24T21:14:11.872032","MEAN_MOTION":13.15549186,"ECCENTRICITY":0.0001417,"INCLINATION":87.8989,"RA_OF_ASC_NODE":263.8399,"ARG_OF_PERICENTER":81.2058,"MEAN_ANOMALY":278.9232,"EPHEMERIS_TYPE":0,"CLASSIFICATION_TYPE":"U","NORAD_CAT_ID":48796,"ELEMENT_SET_NO":999,"REV_AT_EPOCH":24130,"BSTAR":-0.00036632,"MEAN_MOTION_DOT":-1.25e-06,"MEAN_MOTION_DDOT":0.0},{"OBJECT_NAME":"ONEWEB-0236","OBJECT_ID":"2021-045AG","EPOCH":"2026-05-24T19:49:45.577344","MEAN_MOTION":13.15546484,"ECCENTRICITY":0.000193,"INCLINATION":87.8988,"RA_OF_ASC_NODE":263.862,"ARG_OF_PERICENTER":104.37,"MEAN_ANOMALY":255.7645,"EPHEMERIS_TYPE":0,"CLASSIFICATION_TYPE":"U","NORAD_CAT_ID":48797,"ELEMENT_SET_NO":999,"REV_AT_EPOCH":24118,"BSTAR":-0.00044362000000000004,"MEAN_MOTION_DOT":-1.54e-06,"MEAN_MOTION_DDOT":0.0},{"OBJECT_NAME":"ONEWEB-0248","OBJECT_ID":"2021-045AH","EPOCH":"2026-05-24T20:08:01.658112","MEAN_MOTION":13.15546736,"ECCENTRICITY":0.0001395,"INCLINATION":87.8998,"RA_OF_ASC_NODE":263.8407,"ARG_OF_PERICENTER":99.1831,"MEAN_ANOMALY":260.9457,"EPHEMERIS_TYPE":0,"CLASSIFICATION_TYPE":"U","NORAD_CAT_ID":48798,"ELEMENT_SET_NO":999,"REV_AT_EPOCH":24134,"BSTAR":-0.00012132,"MEAN_MOTION_DOT":-3.3e-07,"MEAN_MOTION_DDOT":0.0},{"OBJECT_NAME":"ONEWEB-0225","OBJECT_ID":"2021-045AJ","EPOCH":"2026-05-24T18:50:27.278016","MEAN_MOTION":13.1554783,"ECCENTRICITY":0.0001464,"INCLINATION":87.899,"RA_OF_ASC_NODE":263.8607,"ARG_OF_PERICENTER":86.0683,"MEAN_ANOMALY":274.0615,"EPHEMERIS_TYPE":0,"CLASSIFICATION_TYPE":"U","NORAD_CAT_ID":48799,"ELEMENT_SET_NO":999,"REV_AT_EPOCH":24134,"BSTAR":0.00037198,"MEAN_MOTION_DOT":1.53e-06,"MEAN_MOTION_DDOT":0.0},{"OBJECT_NAME":"ONEWEB-0215","OBJECT_ID":"2021-045AK","EPOCH":"2026-05-24T19:56:37.446144","MEAN_MOTION":13.1554978,"ECCENTRICITY":0.0001276,"INCLINATION":87.8999,"RA_OF_ASC_NODE":263.8323,"ARG_OF_PERICENTER":86.8144,"MEAN_ANOMALY":273.3132,"EPHEMERIS_TYPE":0,"CLASSIFICATION_TYPE":"U","NORAD_CAT_ID":48800,"ELEMENT_SET_NO":999,"REV_AT_EPOCH":24122,"BSTAR":-0.00042888,"MEAN_MOTION_DOT":-1.49e-06,"MEAN_MOTION_DDOT":0.0},{"OBJECT_NAME":"ONEWEB-0216","OBJECT_ID":"2021-045AL","EPOCH":"2026-05-24T20:10:18.933888","MEAN_MOTION":13.1554691,"ECCENTRICITY":0.0001956,"INCLINATION":87.8996,"RA_OF_ASC_NODE":263.8461,"ARG_OF_PERICENTER":99.4437,"MEAN_ANOMALY":260.6915,"EPHEMERIS_TYPE":0,"CLASSIFICATION_TYPE":"U","NORAD_CAT_ID":48801,"ELEMENT_SET_NO":999,"REV_AT_EPOCH":24123,"BSTAR":3.4186e-05,"MEAN_MOTION_DOT":2.6e-07,"MEAN_MOTION_DDOT":0.0},{"OBJECT_NAME":"ONEWEB-0239","OBJECT_ID":"2021-045AM","EPOCH":"2026-05-24T20:17:09.021984","MEAN_MOTION":13.15546976,"ECCENTRICITY":0.0001057,"INCLINATION":87.8987,"RA_OF_ASC_NODE":263.8536,"ARG_OF_PERICENTER":96.0088,"MEAN_ANOMALY":264.1163,"EPHEMERIS_TYPE":0,"CLASSIFICATION_TYPE":"U","NORAD_CAT_ID":48802,"ELEMENT_SET_NO":999,"REV_AT_EPOCH":24127,"BSTAR":0.00019802,"MEAN_MOTION_DOT":8.7e-07,"MEAN_MOTION_DDOT":0.0},{"OBJECT_NAME":"ONEWEB-0249","OBJECT_ID":"2021-060A","EPOCH":"2026-05-24T19:08:52.427328","MEAN_MOTION":13.16593459,"ECCENTRICITY":0.0001911,"INCLINATION":87.9108,"RA_OF_ASC_NODE":233.4217,"ARG_OF_PERICENTER":102.6632,"MEAN_ANOMALY":257.4713,"EPHEMERIS_TYPE":0,"CLASSIFICATION_TYPE":"U","NORAD_CAT_ID":48967,"ELEMENT_SET_NO":999,"REV_AT_EPOCH":23653,"BSTAR":-0.00042722,"MEAN_MOTION_DOT":-1.5e-06,"MEAN_MOTION_DDOT":0.0},{"OBJECT_NAME":"ONEWEB-0250","OBJECT_ID":"2021-060B","EPOCH":"2026-05-24T18:16:40.180224","MEAN_MOTION":13.25831425,"ECCENTRICITY":0.0001885,"INCLINATION":87.9107,"RA_OF_ASC_NODE":231.2617,"ARG_OF_PERICENTER":130.1352,"MEAN_ANOMALY":229.995,"EPHEMERIS_TYPE":0,"CLASSIFICATION_TYPE":"U","NORAD_CAT_ID":48968,"ELEMENT_SET_NO":999,"REV_AT_EPOCH":23711,"BSTAR":-0.000163,"MEAN_MOTION_DOT":-5.8e-07,"MEAN_MOTION_DDOT":0.0},{"OBJECT_NAME":"ONEWEB-0252","OBJECT_ID":"2021-060D","EPOCH":"2026-05-24T18:03:52.644960","MEAN_MOTION":13.16595498,"ECCENTRICITY":0.0002123,"INCLINATION":87.9106,"RA_OF_ASC_NODE":233.4227,"ARG_OF_PERICENTER":94.5045,"MEAN_ANOMALY":265.6328,"EPHEMERIS_TYPE":0,"CLASSIFICATION_TYPE":"U","NORAD_CAT_ID":48970,"ELEMENT_SET_NO":999,"REV_AT_EPOCH":23657,"BSTAR":-0.00020798,"MEAN_MOTION_DOT":-6.7e-07,"MEAN_MOTION_DDOT":0.0},{"OBJECT_NAME":"ONEWEB-0253","OBJECT_ID":"2021-060E","EPOCH":"2026-05-24T15:58:28.079328","MEAN_MOTION":13.16592321,"ECCENTRICITY":0.0001926,"INCLINATION":87.9104,"RA_OF_ASC_NODE":233.4456,"ARG_OF_PERICENTER":100.8905,"MEAN_ANOMALY":259.2443,"EPHEMERIS_TYPE":0,"CLASSIFICATION_TYPE":"U","NORAD_CAT_ID":48971,"ELEMENT_SET_NO":999,"REV_AT_EPOCH":23649,"BSTAR":-0.00018465000000000002,"MEAN_MOTION_DOT":-5.8e-07,"MEAN_MOTION_DDOT":0.0},{"OBJECT_NAME":"ONEWEB-0254","OBJECT_ID":"2021-060F","EPOCH":"2026-05-24T18:01:36.139008","MEAN_MOTION":13.16592316,"ECCENTRICITY":0.0001674,"INCLINATION":87.9108,"RA_OF_ASC_NODE":233.4256,"ARG_OF_PERICENTER":100.5696,"MEAN_ANOMALY":259.5624,"EPHEMERIS_TYPE":0,"CLASSIFICATION_TYPE":"U","NORAD_CAT_ID":48972,"ELEMENT_SET_NO":999,"REV_AT_EPOCH":23650,"BSTAR":-0.0001664,"MEAN_MOTION_DOT":-5.1e-07,"MEAN_MOTION_DDOT":0.0},{"OBJECT_NAME":"ONEWEB-0255","OBJECT_ID":"2021-060G","EPOCH":"2026-05-24T22:35:11.629248","MEAN_MOTION":13.16593662,"ECCENTRICITY":0.0001824,"INCLINATION":87.9107,"RA_OF_ASC_NODE":233.3954,"ARG_OF_PERICENTER":98.9074,"MEAN_ANOMALY":261.2263,"EPHEMERIS_TYPE":0,"CLASSIFICATION_TYPE":"U","NORAD_CAT_ID":48973,"ELEMENT_SET_NO":999,"REV_AT_EPOCH":23660,"BSTAR":-9.6075e-05,"MEAN_MOTION_DOT":-2.4e-07,"MEAN_MOTION_DDOT":0.0},{"OBJECT_NAME":"ONEWEB-0256","OBJECT_ID":"2021-060H","EPOCH":"2026-05-24T15:55:03.727776","MEAN_MOTION":13.16596313,"ECCENTRICITY":0.0002098,"INCLINATION":87.9098,"RA_OF_ASC_NODE":233.4554,"ARG_OF_PERICENTER":99.8903,"MEAN_ANOMALY":260.2465,"EPHEMERIS_TYPE":0,"CLASSIFICATION_TYPE":"U","NORAD_CAT_ID":48974,"ELEMENT_SET_NO":999,"REV_AT_EPOCH":23653,"BSTAR":-0.00018357,"MEAN_MOTION_DOT":-5.7e-07,"MEAN_MOTION_DDOT":0.0},{"OBJECT_NAME":"ONEWEB-0257","OBJECT_ID":"2021-060J","EPOCH":"2026-05-24T18:31:13.951200","MEAN_MOTION":13.16592282,"ECCENTRICITY":0.0001904,"INCLINATION":87.9105,"RA_OF_ASC_NODE":233.4202,"ARG_OF_PERICENTER":96.6535,"MEAN_ANOMALY":263.4813,"EPHEMERIS_TYPE":0,"CLASSIFICATION_TYPE":"U","NORAD_CAT_ID":48975,"ELEMENT_SET_NO":999,"REV_AT_EPOCH":23650,"BSTAR":4.2353000000000006e-05,"MEAN_MOTION_DOT":2.9e-07,"MEAN_MOTION_DDOT":0.0}]