ONEWEB-0233             
1 48795U 21045AE  26144.82132913 -.00000160  00000+0 -45993-3 0  9992
2 48795  87.8988 263.8910 0001603  97.9087 262.2226 13.15546862241226
ONEWEB-0190             
1 48796U 21045AF  26144.88485963 -.00000125  00000+0 -36632-3 0  9996
2 48796  87.8989 263.8399 0001417  81.2058 278.9232 13.15549186241308
ONEWEB-0236             
1 48797U 21045AG  26144.82622196 -.00000154  00000+0 -44362-3 0  9993
2 48797  87.8988 263.8620 0001930 104.3700 255.7645 13.15546484241181
ONEWEB-0248             
1 48798U 21045AH  26144.83890808 -.00000033  00000+0 -12132-3 0  9998
2 48798  87.8998 263.8407 0001395  99.1831 260.9457 13.15546736241344
ONEWEB-0225             
1 48799U 21045AJ  26144.78503794  .00000153  00000+0  37198-3 0  9998
2 48799  87.8990 263.8607 0001464  86.0683 274.0615 13.15547830241344
ONEWEB-0215             
1 48800U 21045AK  26144.83098896 -.00000149  00000+0 -42888-3 0  9998
2 48800  87.8999 263.8323 0001276  86.8144 273.3132 13.15549780241221
ONEWEB-0216             
1 48801U 21045AL  26144.84049692  .00000026  00000+0  34186-4 0  9995
2 48801  87.8996 263.8461 0001956  99.4437 260.6915 13.15546910241233
ONEWEB-0239             
1 48802U 21045AM  26144.84524331  .00000087  00000+0  19802-3 0  9998
2 48802  87.8987 263.8536 0001057  96.0088 264.1163 13.15546976241274
ONEWEB-0249             
1 48967U 21060A   26144.79782902 -.00000150  00000+0 -42722-3 0  9991
2 48967  87.9108 233.4217 0001911 102.6632 257.4713 13.16593459236537
ONEWEB-0250             
1 48968U 21060B   26144.76157616 -.00000058  00000+0 -16300-3 0  9997
2 48968  87.9107 231.2617 0001885 130.1352 229.9950 13.25831425237112
ONEWEB-0252             
1 48970U 21060D   26144.75269265 -.00000067  00000+0 -20798-3 0  9999
2 48970  87.9106 233.4227 0002123  94.5045 265.6328 13.16595498236575
ONEWEB-0253             
1 48971U 21060E   26144.66560277 -.00000058  00000+0 -18465-3 0  9995
2 48971  87.9104 233.4456 0001926 100.8905 259.2443 13.16592321236494
ONEWEB-0254             
1 48972U 21060F   26144.75111272 -.00000051  00000+0 -16640-3 0  9999
2 48972  87.9108 233.4256 0001674 100.5696 259.5624 13.16592316236501
ONEWEB-0255             
1 48973U 21060G   26144.94110682 -.00000024  00000+0 -96075-4 0  9996
2 48973  87.9107 233.3954 0001824  98.9074 261.2263 13.16593662236607
ONEWEB-0256             
1 48974U 21060H   26144.66323759 -.00000057  00000+0 -18357-3 0  9999
2 48974  87.9098 233.4554 0002098  99.8903 260.2465 13.16596313236530
ONEWEB-0257             
1 48975U 21060J   26144.77168925  .00000029  00000+0  42353-4 0  9995
2 48975  87.9105 233.4202 0001904  96.6535 263.4813 13.16592282236501
